IRIDIUM 106             
1 41917U 17003A   24070.73387044  .00000229  00000+0  74637-4 0  9995
2 41917  86.3914  74.7440 0002625  91.3619 268.7877 14.34217587374466
IRIDIUM 103             
1 41918U 17003B   24070.51187798  .00000165  00000+0  51936-4 0  9992
2 41918  86.3912  74.7391 0002044  98.1842 261.9586 14.34217149374453
IRIDIUM 109             
1 41919U 17003C   24070.51822205  .00000040  00000+0  72378-5 0  9998
2 41919  86.3915  74.7823 0002009  89.9210 270.2216 14.34216196374426
IRIDIUM 102             
1 41920U 17003D   24070.48650852  .00000046  00000+0  92267-5 0  9998
2 41920  86.3912  74.7366 0002128  88.1766 271.9673 14.34218076374509
IRIDIUM 105             
1 41921U 17003E   24070.87585798  .00000436  00000+0  14861-3 0  9993
2 41921  86.3968  42.9789 0002242  88.0995 272.0458 14.34219817376416
IRIDIUM 104             
1 41922U 17003F   24070.49919167  .00000095  00000+0  26704-4 0  9994
2 41922  86.3913  74.7613 0002029  92.2503 267.8925 14.34218429374496
IRIDIUM 114             
1 41923U 17003G   24070.50553599  .00000200  00000+0  64216-4 0  9998
2 41923  86.3914  74.7449 0002526  89.9732 270.1753 14.34217569374472
IRIDIUM 108             
1 41924U 17003H   24070.60357435  .00000432  00000+0  14736-3 0  9999
2 41924  86.3962  43.0239 0002528  87.7329 272.4156 14.34219709376340
